CCSDS_OMM_VERS = 2.0
CREATION_DATE  = 
ORIGINATOR     = 

OBJECT_NAME    = UNKNOWN
OBJECT_ID      = 
CENTER_NAME    = EARTH
REF_FRAME      = TEME
TIME_SYSTEM    = UTC
MEAN_ELEMENT_THEORY = SGP/SGP4

EPOCH          = 2026-01-28T16:40:08.425344
MEAN_MOTION    = 12.97069672
ECCENTRICITY   = .00345685
INCLINATION    = 90.2424
RA_OF_ASC_NODE = 7.6213
ARG_OF_PERICENTER = 97.4970
MEAN_ANOMALY   = 263.0080

EPHEMERIS_TYPE = 0
CLASSIFICATION_TYPE = U
NORAD_CAT_ID   = 270115
ELEMENT_SET_NO = 999
REV_AT_EPOCH   = 29131
BSTAR          = .22690345E-2
MEAN_MOTION_DOT = .664E-5
MEAN_MOTION_DDOT = 0

CCSDS_OMM_VERS = 2.0
CREATION_DATE  = 
ORIGINATOR     = 

OBJECT_NAME    = UNKNOWN
OBJECT_ID      = 
CENTER_NAME    = EARTH
REF_FRAME      = TEME
TIME_SYSTEM    = UTC
MEAN_ELEMENT_THEORY = SGP/SGP4

EPOCH          = 2026-01-29T22:51:25.089408
MEAN_MOTION    = 12.23519204
ECCENTRICITY   = .01315409
INCLINATION    = 74.0076
RA_OF_ASC_NODE = 282.2264
ARG_OF_PERICENTER = 142.2577
MEAN_ANOMALY   = 218.7775

EPHEMERIS_TYPE = 0
CLASSIFICATION_TYPE = U
NORAD_CAT_ID   = 270116
ELEMENT_SET_NO = 999
REV_AT_EPOCH   = 27601
BSTAR          = .70969536E-3
MEAN_MOTION_DOT = .65E-6
MEAN_MOTION_DDOT = 0

CCSDS_OMM_VERS = 2.0
CREATION_DATE  = 
ORIGINATOR     = 

OBJECT_NAME    = UNKNOWN
OBJECT_ID      = 
CENTER_NAME    = EARTH
REF_FRAME      = TEME
TIME_SYSTEM    = UTC
MEAN_ELEMENT_THEORY = SGP/SGP4

EPOCH          = 2026-01-31T03:51:48.174336
MEAN_MOTION    = 13.00273517
ECCENTRICITY   = .00250459
INCLINATION    = 90.2362
RA_OF_ASC_NODE = 358.0524
ARG_OF_PERICENTER = 227.3357
MEAN_ANOMALY   = 132.5655

EPHEMERIS_TYPE = 0
CLASSIFICATION_TYPE = U
NORAD_CAT_ID   = 270117
ELEMENT_SET_NO = 999
REV_AT_EPOCH   = 29295
BSTAR          = -.16689007E-2
MEAN_MOTION_DOT = -.497E-5
MEAN_MOTION_DDOT = 0

CCSDS_OMM_VERS = 2.0
CREATION_DATE  = 
ORIGINATOR     = 

OBJECT_NAME    = UNKNOWN
OBJECT_ID      = 
CENTER_NAME    = EARTH
REF_FRAME      = TEME
TIME_SYSTEM    = UTC
MEAN_ELEMENT_THEORY = SGP/SGP4

EPOCH          = 2026-01-28T17:42:31.863456
MEAN_MOTION    = 14.55303765
ECCENTRICITY   = .00054389
INCLINATION    = 98.6912
RA_OF_ASC_NODE = 202.4422
ARG_OF_PERICENTER = 163.5310
MEAN_ANOMALY   = 196.6064

EPHEMERIS_TYPE = 0
CLASSIFICATION_TYPE = U
NORAD_CAT_ID   = 270121
ELEMENT_SET_NO = 999
REV_AT_EPOCH   = 32659
BSTAR          = .77122468E-3
MEAN_MOTION_DOT = .3295E-4
MEAN_MOTION_DDOT = 0

CCSDS_OMM_VERS = 2.0
CREATION_DATE  = 
ORIGINATOR     = 

OBJECT_NAME    = UNKNOWN
OBJECT_ID      = 
CENTER_NAME    = EARTH
REF_FRAME      = TEME
TIME_SYSTEM    = UTC
MEAN_ELEMENT_THEORY = SGP/SGP4

EPOCH          = 2026-02-01T04:53:48.065856
MEAN_MOTION    = 12.96262601
ECCENTRICITY   = .0028146
INCLINATION    = 90.2448
RA_OF_ASC_NODE = 8.8047
ARG_OF_PERICENTER = 167.2139
MEAN_ANOMALY   = 192.9701

EPHEMERIS_TYPE = 0
CLASSIFICATION_TYPE = U
NORAD_CAT_ID   = 270122
ELEMENT_SET_NO = 999
REV_AT_EPOCH   = 29175
BSTAR          = -.38535376E-4
MEAN_MOTION_DOT = -.3E-7
MEAN_MOTION_DDOT = 0

CCSDS_OMM_VERS = 2.0
CREATION_DATE  = 
ORIGINATOR     = 

OBJECT_NAME    = UNKNOWN
OBJECT_ID      = 
CENTER_NAME    = EARTH
REF_FRAME      = TEME
TIME_SYSTEM    = UTC
MEAN_ELEMENT_THEORY = SGP/SGP4

EPOCH          = 2026-01-30T14:21:20.134080
MEAN_MOTION    = 12.23759889
ECCENTRICITY   = .0816379
INCLINATION    = 83.2610
RA_OF_ASC_NODE = 335.3023
ARG_OF_PERICENTER = 69.7491
MEAN_ANOMALY   = 298.9395

EPHEMERIS_TYPE = 0
CLASSIFICATION_TYPE = U
NORAD_CAT_ID   = 270123
ELEMENT_SET_NO = 999
REV_AT_EPOCH   = 27550
BSTAR          = .98176409E-2
MEAN_MOTION_DOT = .3167E-4
MEAN_MOTION_DDOT = 0

CCSDS_OMM_VERS = 2.0
CREATION_DATE  = 
ORIGINATOR     = 

OBJECT_NAME    = UNKNOWN
OBJECT_ID      = 
CENTER_NAME    = EARTH
REF_FRAME      = TEME
TIME_SYSTEM    = UTC
MEAN_ELEMENT_THEORY = SGP/SGP4

EPOCH          = 2026-02-01T04:44:07.484640
MEAN_MOTION    = 12.96873646
ECCENTRICITY   = .00281117
INCLINATION    = 90.2447
RA_OF_ASC_NODE = 10.1701
ARG_OF_PERICENTER = 34.4198
MEAN_ANOMALY   = 325.8736

EPHEMERIS_TYPE = 0
CLASSIFICATION_TYPE = U
NORAD_CAT_ID   = 270124
ELEMENT_SET_NO = 999
REV_AT_EPOCH   = 29265
BSTAR          = -.87484846E-3
MEAN_MOTION_DOT = -.245E-5
MEAN_MOTION_DDOT = 0

CCSDS_OMM_VERS = 2.0
CREATION_DATE  = 
ORIGINATOR     = 

OBJECT_NAME    = UNKNOWN
OBJECT_ID      = 
CENTER_NAME    = EARTH
REF_FRAME      = TEME
TIME_SYSTEM    = UTC
MEAN_ELEMENT_THEORY = SGP/SGP4

EPOCH          = 2026-01-26T12:53:07.089504
MEAN_MOTION    = 14.76068839
ECCENTRICITY   = .00185801
INCLINATION    = 86.3280
RA_OF_ASC_NODE = 315.7747
ARG_OF_PERICENTER = 92.2867
MEAN_ANOMALY   = 268.0480

EPHEMERIS_TYPE = 0
CLASSIFICATION_TYPE = U
NORAD_CAT_ID   = 270127
ELEMENT_SET_NO = 999
REV_AT_EPOCH   = 32732
BSTAR          = .24701898E-2
MEAN_MOTION_DOT = .17126E-3
MEAN_MOTION_DDOT = 0

CCSDS_OMM_VERS = 2.0
CREATION_DATE  = 
ORIGINATOR     = 

OBJECT_NAME    = UNKNOWN
OBJECT_ID      = 
CENTER_NAME    = EARTH
REF_FRAME      = TEME
TIME_SYSTEM    = UTC
MEAN_ELEMENT_THEORY = SGP/SGP4

EPOCH          = 2026-01-29T06:07:58.715616
MEAN_MOTION    = 12.33811241
ECCENTRICITY   = .0046708
INCLINATION    = 102.4342
RA_OF_ASC_NODE = 35.3497
ARG_OF_PERICENTER = 154.1573
MEAN_ANOMALY   = 206.1832

EPHEMERIS_TYPE = 0
CLASSIFICATION_TYPE = U
NORAD_CAT_ID   = 270128
ELEMENT_SET_NO = 999
REV_AT_EPOCH   = 27809
BSTAR          = .71920171E-3
MEAN_MOTION_DOT = .43E-6
MEAN_MOTION_DDOT = 0

CCSDS_OMM_VERS = 2.0
CREATION_DATE  = 
ORIGINATOR     = 

OBJECT_NAME    = UNKNOWN
OBJECT_ID      = 
CENTER_NAME    = EARTH
REF_FRAME      = TEME
TIME_SYSTEM    = UTC
MEAN_ELEMENT_THEORY = SGP/SGP4

EPOCH          = 2026-01-26T04:44:10.100832
MEAN_MOTION    = 12.98627331
ECCENTRICITY   = .00314859
INCLINATION    = 90.2405
RA_OF_ASC_NODE = 5.4018
ARG_OF_PERICENTER = 84.1697
MEAN_ANOMALY   = 276.3013

EPHEMERIS_TYPE = 0
CLASSIFICATION_TYPE = U
NORAD_CAT_ID   = 270129
ELEMENT_SET_NO = 999
REV_AT_EPOCH   = 29148
BSTAR          = -.8427628E-3
MEAN_MOTION_DOT = -.241E-5
MEAN_MOTION_DDOT = 0

CCSDS_OMM_VERS = 2.0
CREATION_DATE  = 
ORIGINATOR     = 

OBJECT_NAME    = UNKNOWN
OBJECT_ID      = 
CENTER_NAME    = EARTH
REF_FRAME      = TEME
TIME_SYSTEM    = UTC
MEAN_ELEMENT_THEORY = SGP/SGP4

EPOCH          = 2026-01-31T10:24:38.541888
MEAN_MOTION    = 4.52468432
ECCENTRICITY   = .54126175
INCLINATION    = 63.1137
RA_OF_ASC_NODE = 132.9901
ARG_OF_PERICENTER = 348.1927
MEAN_ANOMALY   = 2.9597

EPHEMERIS_TYPE = 0
CLASSIFICATION_TYPE = U
NORAD_CAT_ID   = 270131
ELEMENT_SET_NO = 999
REV_AT_EPOCH   = 10216
BSTAR          = .11509449E-3
MEAN_MOTION_DOT = -.29E-6
MEAN_MOTION_DDOT = 0

CCSDS_OMM_VERS = 2.0
CREATION_DATE  = 
ORIGINATOR     = 

OBJECT_NAME    = UNKNOWN
OBJECT_ID      = 
CENTER_NAME    = EARTH
REF_FRAME      = TEME
TIME_SYSTEM    = UTC
MEAN_ELEMENT_THEORY = SGP/SGP4

EPOCH          = 2026-01-21T14:16:59.416896
MEAN_MOTION    = 12.79605782
ECCENTRICITY   = .0391909
INCLINATION    = 63.2043
RA_OF_ASC_NODE = 349.6819
ARG_OF_PERICENTER = 19.6981
MEAN_ANOMALY   = 341.8679

EPHEMERIS_TYPE = 0
CLASSIFICATION_TYPE = U
NORAD_CAT_ID   = 270133
ELEMENT_SET_NO = 999
REV_AT_EPOCH   = 28749
BSTAR          = .2896116E-2
MEAN_MOTION_DOT = .829E-5
MEAN_MOTION_DDOT = 0

CCSDS_OMM_VERS = 2.0
CREATION_DATE  = 
ORIGINATOR     = 

OBJECT_NAME    = UNKNOWN
OBJECT_ID      = 
CENTER_NAME    = EARTH
REF_FRAME      = TEME
TIME_SYSTEM    = UTC
MEAN_ELEMENT_THEORY = SGP/SGP4

EPOCH          = 2026-01-22T14:53:18.965760
MEAN_MOTION    = 12.29535724
ECCENTRICITY   = .06761748
INCLINATION    = 66.0634
RA_OF_ASC_NODE = 345.9202
ARG_OF_PERICENTER = 203.0652
MEAN_ANOMALY   = 153.8613

EPHEMERIS_TYPE = 0
CLASSIFICATION_TYPE = U
NORAD_CAT_ID   = 270134
ELEMENT_SET_NO = 999
REV_AT_EPOCH   = 27629
BSTAR          = -.68734028E-4
MEAN_MOTION_DOT = -.71E-6
MEAN_MOTION_DDOT = 0

CCSDS_OMM_VERS = 2.0
CREATION_DATE  = 
ORIGINATOR     = 

OBJECT_NAME    = UNKNOWN
OBJECT_ID      = 
CENTER_NAME    = EARTH
REF_FRAME      = TEME
TIME_SYSTEM    = UTC
MEAN_ELEMENT_THEORY = SGP/SGP4

EPOCH          = 2026-01-13T20:28:03.102816
MEAN_MOTION    = 13.04705605
ECCENTRICITY   = .02692692
INCLINATION    = 63.5701
RA_OF_ASC_NODE = 224.0326
ARG_OF_PERICENTER = 334.5384
MEAN_ANOMALY   = 24.2557

EPHEMERIS_TYPE = 0
CLASSIFICATION_TYPE = U
NORAD_CAT_ID   = 270135
ELEMENT_SET_NO = 999
REV_AT_EPOCH   = 29182
BSTAR          = .77689811E-3
MEAN_MOTION_DOT = .218E-5
MEAN_MOTION_DDOT = 0

CCSDS_OMM_VERS = 2.0
CREATION_DATE  = 
ORIGINATOR     = 

OBJECT_NAME    = UNKNOWN
OBJECT_ID      = 
CENTER_NAME    = EARTH
REF_FRAME      = TEME
TIME_SYSTEM    = UTC
MEAN_ELEMENT_THEORY = SGP/SGP4

EPOCH          = 2026-01-27T05:13:06.368448
MEAN_MOTION    = 13.02402883
ECCENTRICITY   = .00283055
INCLINATION    = 90.2424
RA_OF_ASC_NODE = 2.0310
ARG_OF_PERICENTER = 342.1814
MEAN_ANOMALY   = 17.8315

EPHEMERIS_TYPE = 0
CLASSIFICATION_TYPE = U
NORAD_CAT_ID   = 270136
ELEMENT_SET_NO = 999
REV_AT_EPOCH   = 29268
BSTAR          = .46851806E-2
MEAN_MOTION_DOT = .1469E-4
MEAN_MOTION_DDOT = 0

CCSDS_OMM_VERS = 2.0
CREATION_DATE  = 
ORIGINATOR     = 

OBJECT_NAME    = UNKNOWN
OBJECT_ID      = 
CENTER_NAME    = EARTH
REF_FRAME      = TEME
TIME_SYSTEM    = UTC
MEAN_ELEMENT_THEORY = SGP/SGP4

EPOCH          = 2026-01-31T13:15:43.341408
MEAN_MOTION    = 12.12981249
ECCENTRICITY   = .03106774
INCLINATION    = 100.9902
RA_OF_ASC_NODE = 150.3162
ARG_OF_PERICENTER = 181.6005
MEAN_ANOMALY   = 178.4075

EPHEMERIS_TYPE = 0
CLASSIFICATION_TYPE = U
NORAD_CAT_ID   = 270137
ELEMENT_SET_NO = 999
REV_AT_EPOCH   = 27371
BSTAR          = -.11181028E-2
MEAN_MOTION_DOT = -.159E-5
MEAN_MOTION_DDOT = 0

